[{"OBJECT_NAME":"QIANFAN-68","OBJECT_ID":"2025-016P","EPOCH":"2026-03-09T22:16:56.373600","MEAN_MOTION":13.51005494,"ECCENTRICITY":0.00172345,"INCLINATION":88.9684,"RA_OF_ASC_NODE":94.0729,"ARG_OF_PERICENTER":92.6124,"MEAN_ANOMALY":267.7001,"EPHEMERIS_TYPE":0,"CLASSIFICATION_TYPE":"U","NORAD_CAT_ID":62798,"ELEMENT_SET_NO":999,"REV_AT_EPOCH":5901,"BSTAR":3.7349722e-5,"MEAN_MOTION_DOT":3.6e-7,"MEAN_MOTION_DDOT":0},{"OBJECT_NAME":"CZ-4C R\/B","OBJECT_ID":"2014-047D","EPOCH":"2026-03-09T15:34:42.518208","MEAN_MOTION":13.70349428,"ECCENTRICITY":0.05513629,"INCLINATION":63.4119,"RA_OF_ASC_NODE":171.3717,"ARG_OF_PERICENTER":0.1747,"MEAN_ANOMALY":359.9387,"EPHEMERIS_TYPE":0,"CLASSIFICATION_TYPE":"U","NORAD_CAT_ID":40112,"ELEMENT_SET_NO":999,"REV_AT_EPOCH":57916,"BSTAR":8.2165001e-5,"MEAN_MOTION_DOT":9.8e-7,"MEAN_MOTION_DDOT":0}]
